[{"OBJECT_NAME":"STARLINK-31592","OBJECT_ID":"2024-068N","EPOCH":"2026-03-09T06:11:26.459232","MEAN_MOTION":15.27575645,"ECCENTRICITY":0.00011826,"INCLINATION":43.0027,"RA_OF_ASC_NODE":37.2216,"ARG_OF_PERICENTER":275.3855,"MEAN_ANOMALY":84.6862,"EPHEMERIS_TYPE":0,"CLASSIFICATION_TYPE":"U","NORAD_CAT_ID":59467,"ELEMENT_SET_NO":999,"REV_AT_EPOCH":10845,"BSTAR":-3.9478675e-5,"MEAN_MOTION_DOT":-1.348e-5,"MEAN_MOTION_DDOT":0},{"OBJECT_NAME":"COSMOS 546","OBJECT_ID":"1973-005A","EPOCH":"2026-03-09T21:40:39.247392","MEAN_MOTION":15.29707303,"ECCENTRICITY":0.00147738,"INCLINATION":50.6327,"RA_OF_ASC_NODE":289.914,"ARG_OF_PERICENTER":261.1516,"MEAN_ANOMALY":98.7778,"EPHEMERIS_TYPE":0,"CLASSIFICATION_TYPE":"U","NORAD_CAT_ID":6350,"ELEMENT_SET_NO":999,"REV_AT_EPOCH":92802,"BSTAR":9.142057e-5,"MEAN_MOTION_DOT":2.316e-5,"MEAN_MOTION_DDOT":0}]
